{
  "type": "FeatureCollection",
  "features": [
    {
      "type": "Feature",
      "properties": {
        "norad_id": 35201,
        "name": "FENGYUN 1C DEB",
        "group": "fengyun-1c-debris",
        "lat": -77.19761929405938,
        "lon": 125.60857507477432,
        "alt_km": 859.0826424750749,
        "timestamp": "2025-12-04T17:48:40.453626+00:00",
        "meta_object_name": "FENGYUN 1C DEB",
        "meta_object_id": "1999-025DPH",
        "meta_epoch": "2025-12-03T19:18:47.960064",
        "meta_mean_motion": 14.11046817,
        "meta_eccentricity": 0.00057692,
        "meta_inclination": 98.7084,
        "meta_ra_of_asc_node": 347.1138,
        "meta_arg_of_pericenter": 278.9362,
        "meta_mean_anomaly": 262.4631,
        "meta_ephemeris_type": 0,
        "meta_classification_type": "U",
        "meta_norad_cat_id": 35201,
        "meta_element_set_no": 999,
        "meta_rev_at_epoch": 86893,
        "meta_bstar": 0.00014168849,
        "meta_mean_motion_dot": 2.12e-06,
        "meta_mean_motion_ddot": 0,
        "tle_line1": "1 35201U 99025DPH 25337.80472176  .00000212  00000+0  14169-3 0  9999",
        "tle_line2": "2 35201  98.7084 347.1138 0005769 278.9362 262.4631 14.11046817868931"
      },
      "geometry": {
        "type": "Point",
        "coordinates": [
          125.60857507477432,
          -77.19761929405938
        ]
      }
    },
    {
      "type": "Feature",
      "properties": {
        "norad_id": 35202,
        "name": "FENGYUN 1C DEB",
        "group": "fengyun-1c-debris",
        "lat": -53.75411966478892,
        "lon": -170.1973342641266,
        "alt_km": 1382.3121093356776,
        "timestamp": "2025-12-04T17:48:40.453637+00:00",
        "meta_object_name": "FENGYUN 1C DEB",
        "meta_object_id": "1999-025DPJ",
        "meta_epoch": "2025-11-30T10:05:49.025184",
        "meta_mean_motion": 13.34730307,
        "meta_eccentricity": 0.03739167,
        "meta_inclination": 100.0942,
        "meta_ra_of_asc_node": 19.5924,
        "meta_arg_of_pericenter": 37.6604,
        "meta_mean_anomaly": 325.0083,
        "meta_ephemeris_type": 0,
        "meta_classification_type": "U",
        "meta_norad_cat_id": 35202,
        "meta_element_set_no": 999,
        "meta_rev_at_epoch": 56812,
        "meta_bstar": 0.00081043758,
        "meta_mean_motion_dot": 5.61e-06,
        "meta_mean_motion_ddot": 0,
        "tle_line1": "1 35202U 99025DPJ 25334.42070631  .00000561  00000+0  81044-3 0  9998",
        "tle_line2": "2 35202 100.0942  19.5924 0373916  37.6604 325.0083 13.34730307568129"
      },
      "geometry": {
        "type": "Point",
        "coordinates": [
          -170.1973342641266,
          -53.75411966478892
        ]
      }
    },
    {
      "type": "Feature",
      "properties": {
        "norad_id": 35203,
        "name": "FENGYUN 1C DEB",
        "group": "fengyun-1c-debris",
        "lat": -21.56830456261753,
        "lon": 119.54963590351753,
        "alt_km": 812.6461024368591,
        "timestamp": "2025-12-04T17:48:40.453646+00:00",
        "meta_object_name": "FENGYUN 1C DEB",
        "meta_object_id": "1999-025DPK",
        "meta_epoch": "2025-12-03T15:27:54.802656",
        "meta_mean_motion": 13.26388457,
        "meta_eccentricity": 0.05116747,
        "meta_inclination": 102.0734,
        "meta_ra_of_asc_node": 303.1231,
        "meta_arg_of_pericenter": 179.2768,
        "meta_mean_anomaly": 180.9196,
        "meta_ephemeris_type": 0,
        "meta_classification_type": "U",
        "meta_norad_cat_id": 35203,
        "meta_element_set_no": 999,
        "meta_rev_at_epoch": 59530,
        "meta_bstar": 0.0023783479,
        "meta_mean_motion_dot": 2.085e-05,
        "meta_mean_motion_ddot": 0,
        "tle_line1": "1 35203U 99025DPK 25337.64438429  .00002085  00000+0  23783-2 0  9997",
        "tle_line2": "2 35203 102.0734 303.1231 0511674 179.2768 180.9196 13.26388457595302"
      },
      "geometry": {
        "type": "Point",
        "coordinates": [
          119.54963590351753,
          -21.56830456261753
        ]
      }
    },
    {
      "type": "Feature",
      "properties": {
        "norad_id": 35204,
        "name": "FENGYUN 1C DEB",
        "group": "fengyun-1c-debris",
        "lat": 11.887428992995167,
        "lon": -11.338878541712308,
        "alt_km": 759.6372731965876,
        "timestamp": "2025-12-04T17:48:40.453678+00:00",
        "meta_object_name": "FENGYUN 1C DEB",
        "meta_object_id": "1999-025DPL",
        "meta_epoch": "2025-12-03T00:17:34.201824",
        "meta_mean_motion": 14.4851708,
        "meta_eccentricity": 0.00393907,
        "meta_inclination": 99.0057,
        "meta_ra_of_asc_node": 164.9047,
        "meta_arg_of_pericenter": 352.2699,
        "meta_mean_anomaly": 159.62,
        "meta_ephemeris_type": 0,
        "meta_classification_type": "U",
        "meta_norad_cat_id": 35204,
        "meta_element_set_no": 999,
        "meta_rev_at_epoch": 90789,
        "meta_bstar": 0.0029447199,
        "meta_mean_motion_dot": 0.00011129,
        "meta_mean_motion_ddot": 0,
        "tle_line1": "1 35204U 99025DPL 25337.01220141  .00011129  00000+0  29447-2 0  9991",
        "tle_line2": "2 35204  99.0057 164.9047 0039390 352.2699 159.6200 14.48517080907891"
      },
      "geometry": {
        "type": "Point",
        "coordinates": [
          -11.338878541712308,
          11.887428992995167
        ]
      }
    },
    {
      "type": "Feature",
      "properties": {
        "norad_id": 35207,
        "name": "FENGYUN 1C DEB",
        "group": "fengyun-1c-debris",
        "lat": -68.09127421438207,
        "lon": -125.60861388033084,
        "alt_km": 682.417509877444,
        "timestamp": "2025-12-04T17:48:40.453690+00:00",
        "meta_object_name": "FENGYUN 1C DEB",
        "meta_object_id": "1999-025DPP",
        "meta_epoch": "2025-11-29T17:50:26.900160",
        "meta_mean_motion": 14.55080945,
        "meta_eccentricity": 0.0054743,
        "meta_inclination": 98.6905,
        "meta_ra_of_asc_node": 71.5483,
        "meta_arg_of_pericenter": 294.9923,
        "meta_mean_anomaly": 64.5593,
        "meta_ephemeris_type": 0,
        "meta_classification_type": "U",
        "meta_norad_cat_id": 35207,
        "meta_element_set_no": 999,
        "meta_rev_at_epoch": 64715,
        "meta_bstar": 0.0019605249,
        "meta_mean_motion_dot": 8.586e-05,
        "meta_mean_motion_ddot": 0,
        "tle_line1": "1 35207U 99025DPP 25333.74336690  .00008586  00000+0  19605-2 0  9995",
        "tle_line2": "2 35207  98.6905  71.5483 0054743 294.9923  64.5593 14.55080945647151"
      },
      "geometry": {
        "type": "Point",
        "coordinates": [
          -125.60861388033084,
          -68.09127421438207
        ]
      }
    },
    {
      "type": "Feature",
      "properties": {
        "norad_id": 35208,
        "name": "FENGYUN 1C DEB",
        "group": "fengyun-1c-debris",
        "lat": 38.12573598046654,
        "lon": -8.909080447011046,
        "alt_km": 947.722475982574,
        "timestamp": "2025-12-04T17:48:40.453700+00:00",
        "meta_object_name": "FENGYUN 1C DEB",
        "meta_object_id": "1999-025DPQ",
        "meta_epoch": "2025-11-27T19:11:53.318688",
        "meta_mean_motion": 13.99599013,
        "meta_eccentricity": 0.01006373,
        "meta_inclination": 98.9056,
        "meta_ra_of_asc_node": 351.4058,
        "meta_arg_of_pericenter": 197.6504,
        "meta_mean_anomaly": 162.1154,
        "meta_ephemeris_type": 0,
        "meta_classification_type": "U",
        "meta_norad_cat_id": 35208,
        "meta_element_set_no": 999,
        "meta_rev_at_epoch": 90354,
        "meta_bstar": 0.00091687477,
        "meta_mean_motion_dot": 1.356e-05,
        "meta_mean_motion_ddot": 0,
        "tle_line1": "1 35208U 99025DPQ 25331.79992267  .00001356  00000+0  91687-3 0  9996",
        "tle_line2": "2 35208  98.9056 351.4058 0100637 197.6504 162.1154 13.99599013903542"
      },
      "geometry": {
        "type": "Point",
        "coordinates": [
          -8.909080447011046,
          38.12573598046654
        ]
      }
    },
    {
      "type": "Feature",
      "properties": {
        "norad_id": 35210,
        "name": "FENGYUN 1C DEB",
        "group": "fengyun-1c-debris",
        "lat": 78.79554169684114,
        "lon": -71.85779746584825,
        "alt_km": 808.2246538863528,
        "timestamp": "2025-12-04T17:48:40.453710+00:00",
        "meta_object_name": "FENGYUN 1C DEB",
        "meta_object_id": "1999-025DPS",
        "meta_epoch": "2025-12-03T11:59:47.719104",
        "meta_mean_motion": 14.3342429,
        "meta_eccentricity": 0.00494182,
        "meta_inclination": 99.0975,
        "meta_ra_of_asc_node": 340.8263,
        "meta_arg_of_pericenter": 266.3294,
        "meta_mean_anomaly": 250.1349,
        "meta_ephemeris_type": 0,
        "meta_classification_type": "U",
        "meta_norad_cat_id": 35210,
        "meta_element_set_no": 999,
        "meta_rev_at_epoch": 89990,
        "meta_bstar": 0.0034879848,
        "meta_mean_motion_dot": 9.724e-05,
        "meta_mean_motion_ddot": 0,
        "tle_line1": "1 35210U 99025DPS 25337.49985786  .00009724  00000+0  34880-2 0  9998",
        "tle_line2": "2 35210  99.0975 340.8263 0049418 266.3294 250.1349 14.33424290899907"
      },
      "geometry": {
        "type": "Point",
        "coordinates": [
          -71.85779746584825,
          78.79554169684114
        ]
      }
    }
  ]
}